HST                     
1 20580U 90037B   24274.59720062  .00014727  00000+0  65943-3 0  9994
2 20580  28.4700 357.9327 0003277 112.3484 247.7456 15.19779408693077
